OBJECT_NAME,OBJECT_ID,EPOCH,MEAN_MOTION,ECCENTRICITY,INCLINATION,RA_OF_ASC_NODE,ARG_OF_PERICENTER,MEAN_ANOMALY,EPHEMERIS_TYPE,CLASSIFICATION_TYPE,NORAD_CAT_ID,ELEMENT_SET_NO,REV_AT_EPOCH,BSTAR,MEAN_MOTION_DOT,MEAN_MOTION_DDOT
GSAT-7,2013-044B,2026-06-04T03:38:48.875712,1.00271134,.00029322,0.0556,106.2438,188.5066,86.5641,0,U,39234,999,4512,0,-.65E-6,0
AMOS-4,2013-045A,2026-06-04T03:36:19.115136,1.00272611,.0002646,0.0077,66.2731,343.2898,322.1198,0,U,39237,999,4682,0,.19E-6,0
AEHF-3 (USA 246),2013-050A,2026-06-03T21:34:14.820096,1.00269275,.0087858,5.2619,67.3020,188.0816,196.2821,0,U,39256,999,4552,0,.4E-6,0
ASTRA 2E,2013-056A,2026-06-04T03:25:50.119680,1.00272567,.00025846,0.0586,336.2881,97.2151,259.0441,0,U,39285,999,4628,0,.162E-5,0
FM-6,2013-058A,2026-06-03T16:28:30.707328,1.00260986,.00024704,0.0086,41.1711,106.4016,235.3713,0,U,39360,999,4593,0,-.2E-7,0
RADUGA-1M 3,2013-062A,2026-06-03T22:19:42.972672,1.00273692,.00016238,5.9244,72.5233,275.9445,273.8328,0,U,39375,999,4597,0,.163E-5,0
SES-8,2013-071A,2026-06-04T04:49:38.495136,1.00270121,.00029859,0.0179,289.4143,150.7275,339.9158,0,U,39460,999,4429,0,-.257E-5,0
INMARSAT 5-F1,2013-073A,2026-06-04T00:03:38.736288,1.00272002,.00003733,0.0177,0.9991,356.7571,318.2566,0,U,39476,999,4544,0,.39E-6,0
TKSAT-1 (TUPAC KATARI),2013-075A,2026-06-04T04:22:38.760384,1.00272532,.00027985,0.0400,171.0348,255.0910,164.9674,0,U,39481,999,4547,0,-.183E-5,0
EXPRESS-AM5,2013-077A,2026-06-04T07:23:01.754880,1.00270682,.00008063,0.0123,285.6150,69.5969,148.3434,0,U,39487,999,4623,0,-.268E-5,0
GSAT-14,2014-001A,2026-06-03T12:14:48.418368,1.00272088,.0000457,0.0168,289.4470,177.4056,42.8394,0,U,39498,999,4524,0,-.65E-6,0
THAICOM 6,2014-002A,2026-06-04T03:40:03.756000,1.00270510,.00046443,0.0743,110.3715,349.4333,286.3368,0,U,39500,999,4532,0,-.109E-5,0
TDRS 12,2014-004A,2026-06-04T03:06:03.128832,1.00272233,.00024508,3.9643,18.8706,198.6065,40.7344,0,U,39504,999,4414,0,-.259E-5,0
ABS-2,2014-006A,2026-06-04T05:13:38.629344,1.00272028,.00043846,0.0131,34.3800,27.0463,344.5846,0,U,39508,999,4514,0,-.74E-6,0
ATHENA-FIDUS,2014-006B,2026-06-04T03:28:27.369408,1.00273390,.0001551,0.0293,82.5874,350.0056,269.9240,0,U,39509,999,4495,0,.166E-5,0
TURKSAT 4A,2014-007A,2026-06-04T03:29:42.248832,1.00273690,.00013053,0.0637,289.4183,58.1016,359.5204,0,U,39522,999,4483,0,.158E-5,0
EXPRESS-AT1,2014-010A,2026-06-04T03:35:04.234848,1.00301153,.00037731,0.2245,85.9724,31.4120,249.8797,0,U,39612,999,4468,0,.48E-6,0
EXPRESS-AT2,2014-010B,2026-06-04T03:33:41.867136,1.00270953,.00003468,0.0158,299.9829,124.1753,297.8591,0,U,39613,999,4436,0,.91E-6,0
AMAZONAS 4A,2014-011A,2026-06-04T04:14:38.556096,1.00267292,.00041631,0.0707,212.3492,254.4065,135.5135,0,U,39616,999,4458,0,-.24E-5,0
ASTRA 5B,2014-011B,2026-06-04T03:24:27.751968,1.00272856,.00023082,0.0634,311.5981,114.6808,260.9523,0,U,39617,999,4453,0,.149E-5,0
IRNSS-1B,2014-017A,2026-05-19T20:39:38.653920,1.00280229,.00242269,28.9733,240.8911,185.2284,176.5740,0,U,39635,999,4451,0,.103E-5,0
LUCH-5V,2014-023A,2026-06-04T04:49:38.495136,1.00269321,.00027696,5.1016,69.8805,26.2347,323.6823,0,U,39727,999,4422,0,-.258E-5,0
KAZSAT-3,2014-023B,2026-06-04T03:34:26.795136,1.00271875,.00002639,0.0347,60.1133,1.6186,302.9783,0,U,39728,999,4232,0,.72E-6,0
EUTELSAT 3B,2014-030A,2026-06-04T05:01:14.962944,1.00272098,.00042071,0.0617,346.2214,89.2253,255.6214,0,U,39773,999,4393,0,.32E-6,0
ASIASAT 8 (AMOS-7),2014-046A,2026-06-04T00:20:38.664960,1.00274084,.00017374,0.0224,285.2722,140.3226,297.3481,0,U,40107,999,10201,0,-.321E-5,0
ASIASAT 6,2014-052A,2026-06-04T07:17:17.305728,1.00270524,.00010454,0.0158,303.2453,143.2488,35.4944,0,U,40141,999,4295,0,-.35E-5,0
OPTUS 10,2014-054A,2026-06-03T20:04:38.582688,1.00272313,.00021777,0.1144,349.3909,81.4337,278.6309,0,U,40146,999,4289,0,-.135E-5,0
MEASAT-3B,2014-054B,2026-06-04T04:49:38.495136,1.00268765,.00030667,0.0372,32.3719,35.7450,348.4216,0,U,40147,999,4277,0,-.229E-5,0
HIMAWARI-8,2014-060A,2026-06-03T22:49:53.475168,1.00272808,.00009815,0.0154,1.3160,86.1978,288.0371,0,U,40267,999,4262,0,-.263E-5,0
IRNSS-1C,2014-061A,2026-06-03T20:50:41.495712,1.00271435,.00225294,6.4846,89.1801,0.9557,197.8922,0,U,40269,999,4255,0,-.151E-5,0
INTELSAT 30 (IS-30),2014-062A,2026-06-04T04:33:15.873984,1.00270463,.00010022,0.0274,48.4343,355.7263,181.7382,0,U,40271,999,666,0,-.139E-5,0
ARSAT 1,2014-062B,2026-06-03T23:31:54.296256,1.00272050,.00020033,0.0348,53.8956,20.1851,99.5401,0,U,40272,999,4249,0,-.248E-5,0
