GSAT-7                  
1 39234U 13044B   26155.15195458 -.00000065  00000+0  00000+0 0  9990
2 39234   0.0556 106.2438 0002932 188.5066  86.5641  1.00271134 45124
AMOS-4                  
1 39237U 13045A   26155.15022124  .00000019  00000+0  00000+0 0  9991
2 39237   0.0077  66.2731 0002646 343.2898 322.1198  1.00272611 46826
AEHF-3 (USA 246)        
1 39256U 13050A   26154.89878264  .00000040  00000+0  00000+0 0  9996
2 39256   5.2619  67.3020 0087858 188.0816 196.2821  1.00269275 45523
ASTRA 2E                
1 39285U 13056A   26155.14294120  .00000162  00000+0  00000+0 0  9991
2 39285   0.0586 336.2881 0002584  97.2151 259.0441  1.00272567 46288
FM-6                    
1 39360U 13058A   26154.68646652 -.00000002  00000+0  00000+0 0  9990
2 39360   0.0086  41.1711 0002470 106.4016 235.3713  1.00260986 45930
RADUGA-1M 3             
1 39375U 13062A   26154.93035848  .00000163  00000+0  00000+0 0  9995
2 39375   5.9244  72.5233 0001623 275.9445 273.8328  1.00273692 45971
SES-8                   
1 39460U 13071A   26155.20113999 -.00000257  00000+0  00000+0 0  9990
2 39460   0.0179 289.4143 0002985 150.7275 339.9158  1.00270121 44294
INMARSAT 5-F1           
1 39476U 13073A   26155.00253167  .00000039  00000+0  00000+0 0  9996
2 39476   0.0177   0.9991 0000373 356.7571 318.2566  1.00272002 45443
TKSAT-1 (TUPAC KATARI)  
1 39481U 13075A   26155.18239306 -.00000183  00000+0  00000+0 0  9993
2 39481   0.0400 171.0348 0002798 255.0910 164.9674  1.00272532 45472
EXPRESS-AM5             
1 39487U 13077A   26155.30765920 -.00000268  00000+0  00000+0 0  9995
2 39487   0.0123 285.6150 0000806  69.5969 148.3434  1.00270682 46232
GSAT-14                 
1 39498U 14001A   26154.51028262 -.00000065  00000+0  00000+0 0  9993
2 39498   0.0168 289.4470 0000457 177.4056  42.8394  1.00272088 45243
THAICOM 6               
1 39500U 14002A   26155.15282125 -.00000109  00000+0  00000+0 0  9998
2 39500   0.0743 110.3715 0004644 349.4333 286.3368  1.00270510 45324
TDRS 12                 
1 39504U 14004A   26155.12920288 -.00000259  00000+0  00000+0 0  9996
2 39504   3.9643  18.8706 0002450 198.6065  40.7344  1.00272233 44149
ABS-2                   
1 39508U 14006A   26155.21780821 -.00000074  00000+0  00000+0 0  9994
2 39508   0.0131  34.3800 0004384  27.0463 344.5846  1.00272028 45141
ATHENA-FIDUS            
1 39509U 14006B   26155.14476122  .00000166  00000+0  00000+0 0  9994
2 39509   0.0293  82.5874 0001551 350.0056 269.9240  1.00273390 44956
TURKSAT 4A              
1 39522U 14007A   26155.14562788  .00000158  00000+0  00000+0 0  9995
2 39522   0.0637 289.4183 0001305  58.1016 359.5204  1.00273690 44839
EXPRESS-AT1             
1 39612U 14010A   26155.14935457  .00000048  00000+0  00000+0 0  9994
2 39612   0.2245  85.9724 0003773  31.4120 249.8797  1.00301153 44684
EXPRESS-AT2             
1 39613U 14010B   26155.14840124  .00000091  00000+0  00000+0 0  9999
2 39613   0.0158 299.9829 0000346 124.1753 297.8591  1.00270953 44367
AMAZONAS 4A             
1 39616U 14011A   26155.17683514 -.00000240  00000+0  00000+0 0  9991
2 39616   0.0707 212.3492 0004163 254.4065 135.5135  1.00267292 44587
ASTRA 5B                
1 39617U 14011B   26155.14198787  .00000149  00000+0  00000+0 0  9999
2 39617   0.0634 311.5981 0002308 114.6808 260.9523  1.00272856 44534
IRNSS-1B                
1 39635U 14017A   26139.86086405  .00000103  00000+0  00000+0 0  9999
2 39635  28.9733 240.8911 0024226 185.2284 176.5740  1.00280229 44519
LUCH-5V                 
1 39727U 14023A   26155.20113999 -.00000258  00000+0  00000+0 0  9995
2 39727   5.1016  69.8805 0002769  26.2347 323.6823  1.00269321 44220
KAZSAT-3                
1 39728U 14023B   26155.14892124  .00000072  00000+0  00000+0 0  9996
2 39728   0.0347  60.1133 0000263   1.6186 302.9783  1.00271875 42326
EUTELSAT 3B             
1 39773U 14030A   26155.20920096  .00000032  00000+0  00000+0 0  9997
2 39773   0.0617 346.2214 0004207  89.2253 255.6214  1.00272098 43932
ASIASAT 8 (AMOS-7)      
1 40107U 14046A   26155.01433640 -.00000321  00000+0  00000+0 0  9992
2 40107   0.0224 285.2722 0001737 140.3226 297.3481  1.00274084102010
ASIASAT 6               
1 40141U 14052A   26155.30367252 -.00000350  00000+0  00000+0 0  9996
2 40141   0.0158 303.2453 0001045 143.2488  35.4944  1.00270524 42956
OPTUS 10                
1 40146U 14054A   26154.83655767 -.00000135  00000+0  00000+0 0  9992
2 40146   0.1144 349.3909 0002177  81.4337 278.6309  1.00272313 42894
MEASAT-3B               
1 40147U 14054B   26155.20113999 -.00000229  00000+0  00000+0 0  9995
2 40147   0.0372  32.3719 0003066  35.7450 348.4216  1.00268765 42777
HIMAWARI-8              
1 40267U 14060A   26154.95131337 -.00000263  00000+0  00000+0 0  9990
2 40267   0.0154   1.3160 0000981  86.1978 288.0371  1.00272808 42620
IRNSS-1C                
1 40269U 14061A   26154.86853583 -.00000151  00000+0  00000+0 0  9993
2 40269   6.4846  89.1801 0022529   0.9557 197.8922  1.00271435 42551
INTELSAT 30 (IS-30)     
1 40271U 14062A   26155.18976706 -.00000139  00000+0  00000+0 0  9992
2 40271   0.0274  48.4343 0001002 355.7263 181.7382  1.00270463  6660
ARSAT 1                 
1 40272U 14062B   26154.98048954 -.00000248  00000+0  00000+0 0  9996
2 40272   0.0348  53.8956 0002003  20.1851  99.5401  1.00272050 42494
